DELTA 2 R/B(1)          
1 20453U 90008B   26036.30970739  .00088442  00000+0  11788-2 0  9998
2 20453  35.6065  26.6230 0096234 316.9901  42.3342 15.51488253921094
COSMOS 2058             
1 20465U 90010A   26036.59968946  .00005880  00000+0  34965-3 0  9990
2 20465  82.4633  79.0409 0012095  86.3650 273.8963 15.11025810937392
SL-14 R/B               
1 20466U 90010B   26036.78438963  .00000715  00000+0  83615-4 0  9992
2 20466  82.5033 297.3583 0021016  48.0127 312.2874 14.83540942923753
SL-14 R/B               
1 20511U 90018B   26036.97394407  .00000524  00000+0  62868-4 0  9991
2 20511  82.5185 252.7410 0015991 191.5882 168.4967 14.82112049917886
HST                     
1 20580U 90037B   26036.89949414  .00009561  00000+0  32208-3 0  9997
2 20580  28.4665 256.7833 0001910 115.5138 244.5655 15.28971962768447
SL-16 R/B               
1 20625U 90046B   26036.95656518  .00000054  00000+0  52609-4 0  9990
2 20625  70.9998   4.5558 0014561 343.7089  16.3564 14.15005199843901
COSMOS 2084             
1 20663U 90055A   26036.57503207  .00004122  00000+0  29808-3 0  9990
2 20663  62.7896  85.0929 0022182 183.3057 176.7900 15.05443605931480
SL-6 R/B(2)             
1 20666U 90055D   26036.97986805  .00004021  00000+0  30727-3 0  9996
2 20666  62.7852   1.6695 0020031 337.8166  22.2064 15.03423586933423
SL-8 R/B                
1 20775U 90078B   26036.64488017  .00021588  00000+0  63811-3 0  9995
2 20775  82.9024 280.1044 0367271 121.3590 242.4120 14.87999668804536
SL-8 R/B                
1 21088U 91006B   26036.96550384  .00000012  00000+0 -39552-5 0  9994
2 21088  82.9427 193.6321 0023543 122.6903 351.8215 13.77491933759708
OKEAN-3                 
1 21397U 91039A   26036.95794780  .00004849  00000+0  34303-3 0  9990
2 21397  82.5182   7.5748 0016438  80.6738 279.6346 15.04552001860267
COSMOS 2151             
1 21422U 91042A   26036.93098444  .00002505  00000+0  19918-3 0  9997
2 21422  82.4966 114.3107 0013093 160.4169 199.7561 14.99981062858433
