CCSDS_OMM_VERS = 2.0
CREATION_DATE  = 
ORIGINATOR     = 

OBJECT_NAME    = DELTA 2 R/B(1)
OBJECT_ID      = 1990-008B
CENTER_NAME    = EARTH
REF_FRAME      = TEME
TIME_SYSTEM    = UTC
MEAN_ELEMENT_THEORY = SGP/SGP4

EPOCH          = 2026-02-05T07:25:58.718496
MEAN_MOTION    = 15.51488253
ECCENTRICITY   = .0096234
INCLINATION    = 35.6065
RA_OF_ASC_NODE = 26.6230
ARG_OF_PERICENTER = 316.9901
MEAN_ANOMALY   = 42.3342

EPHEMERIS_TYPE = 0
CLASSIFICATION_TYPE = U
NORAD_CAT_ID   = 20453
ELEMENT_SET_NO = 999
REV_AT_EPOCH   = 92109
BSTAR          = .11788E-2
MEAN_MOTION_DOT = .88442E-3
MEAN_MOTION_DDOT = 0

CCSDS_OMM_VERS = 2.0
CREATION_DATE  = 
ORIGINATOR     = 

OBJECT_NAME    = COSMOS 2058
OBJECT_ID      = 1990-010A
CENTER_NAME    = EARTH
REF_FRAME      = TEME
TIME_SYSTEM    = UTC
MEAN_ELEMENT_THEORY = SGP/SGP4

EPOCH          = 2026-02-05T14:23:33.169344
MEAN_MOTION    = 15.11025810
ECCENTRICITY   = .0012095
INCLINATION    = 82.4633
RA_OF_ASC_NODE = 79.0409
ARG_OF_PERICENTER = 86.3650
MEAN_ANOMALY   = 273.8963

EPHEMERIS_TYPE = 0
CLASSIFICATION_TYPE = U
NORAD_CAT_ID   = 20465
ELEMENT_SET_NO = 999
REV_AT_EPOCH   = 93739
BSTAR          = .34965E-3
MEAN_MOTION_DOT = .588E-4
MEAN_MOTION_DDOT = 0

CCSDS_OMM_VERS = 2.0
CREATION_DATE  = 
ORIGINATOR     = 

OBJECT_NAME    = SL-14 R/B
OBJECT_ID      = 1990-010B
CENTER_NAME    = EARTH
REF_FRAME      = TEME
TIME_SYSTEM    = UTC
MEAN_ELEMENT_THEORY = SGP/SGP4

EPOCH          = 2026-02-05T18:49:31.264032
MEAN_MOTION    = 14.83540942
ECCENTRICITY   = .00210166
INCLINATION    = 82.5033
RA_OF_ASC_NODE = 297.3583
ARG_OF_PERICENTER = 48.0127
MEAN_ANOMALY   = 312.2874

EPHEMERIS_TYPE = 0
CLASSIFICATION_TYPE = U
NORAD_CAT_ID   = 20466
ELEMENT_SET_NO = 999
REV_AT_EPOCH   = 92375
BSTAR          = .8361491E-4
MEAN_MOTION_DOT = .715E-5
MEAN_MOTION_DDOT = 0

CCSDS_OMM_VERS = 2.0
CREATION_DATE  = 
ORIGINATOR     = 

OBJECT_NAME    = SL-14 R/B
OBJECT_ID      = 1990-018B
CENTER_NAME    = EARTH
REF_FRAME      = TEME
TIME_SYSTEM    = UTC
MEAN_ELEMENT_THEORY = SGP/SGP4

EPOCH          = 2026-02-05T23:22:28.767648
MEAN_MOTION    = 14.82112049
ECCENTRICITY   = .0015991
INCLINATION    = 82.5185
RA_OF_ASC_NODE = 252.7410
ARG_OF_PERICENTER = 191.5882
MEAN_ANOMALY   = 168.4967

EPHEMERIS_TYPE = 0
CLASSIFICATION_TYPE = U
NORAD_CAT_ID   = 20511
ELEMENT_SET_NO = 999
REV_AT_EPOCH   = 91788
BSTAR          = .62868276E-4
MEAN_MOTION_DOT = .524E-5
MEAN_MOTION_DDOT = 0

CCSDS_OMM_VERS = 2.0
CREATION_DATE  = 
ORIGINATOR     = 

OBJECT_NAME    = HST
OBJECT_ID      = 1990-037B
CENTER_NAME    = EARTH
REF_FRAME      = TEME
TIME_SYSTEM    = UTC
MEAN_ELEMENT_THEORY = SGP/SGP4

EPOCH          = 2026-02-05T21:35:16.293696
MEAN_MOTION    = 15.28971962
ECCENTRICITY   = .00019108
INCLINATION    = 28.4665
RA_OF_ASC_NODE = 256.7833
ARG_OF_PERICENTER = 115.5138
MEAN_ANOMALY   = 244.5655

EPHEMERIS_TYPE = 0
CLASSIFICATION_TYPE = U
NORAD_CAT_ID   = 20580
ELEMENT_SET_NO = 999
REV_AT_EPOCH   = 76844
BSTAR          = .32207972E-3
MEAN_MOTION_DOT = .9561E-4
MEAN_MOTION_DDOT = 0

CCSDS_OMM_VERS = 2.0
CREATION_DATE  = 
ORIGINATOR     = 

OBJECT_NAME    = SL-16 R/B
OBJECT_ID      = 1990-046B
CENTER_NAME    = EARTH
REF_FRAME      = TEME
TIME_SYSTEM    = UTC
MEAN_ELEMENT_THEORY = SGP/SGP4

EPOCH          = 2026-02-05T22:57:27.231552
MEAN_MOTION    = 14.15005199
ECCENTRICITY   = .00145619
INCLINATION    = 70.9998
RA_OF_ASC_NODE = 4.5558
ARG_OF_PERICENTER = 343.7089
MEAN_ANOMALY   = 16.3564

EPHEMERIS_TYPE = 0
CLASSIFICATION_TYPE = U
NORAD_CAT_ID   = 20625
ELEMENT_SET_NO = 999
REV_AT_EPOCH   = 84390
BSTAR          = .52609247E-4
MEAN_MOTION_DOT = .54E-6
MEAN_MOTION_DDOT = 0

CCSDS_OMM_VERS = 2.0
CREATION_DATE  = 
ORIGINATOR     = 

OBJECT_NAME    = COSMOS 2084
OBJECT_ID      = 1990-055A
CENTER_NAME    = EARTH
REF_FRAME      = TEME
TIME_SYSTEM    = UTC
MEAN_ELEMENT_THEORY = SGP/SGP4

EPOCH          = 2026-02-05T13:48:02.770848
MEAN_MOTION    = 15.05443605
ECCENTRICITY   = .0022182
INCLINATION    = 62.7896
RA_OF_ASC_NODE = 85.0929
ARG_OF_PERICENTER = 183.3057
MEAN_ANOMALY   = 176.7900

EPHEMERIS_TYPE = 0
CLASSIFICATION_TYPE = U
NORAD_CAT_ID   = 20663
ELEMENT_SET_NO = 999
REV_AT_EPOCH   = 93148
BSTAR          = .29808E-3
MEAN_MOTION_DOT = .4122E-4
MEAN_MOTION_DDOT = 0

CCSDS_OMM_VERS = 2.0
CREATION_DATE  = 
ORIGINATOR     = 

OBJECT_NAME    = SL-6 R/B(2)
OBJECT_ID      = 1990-055D
CENTER_NAME    = EARTH
REF_FRAME      = TEME
TIME_SYSTEM    = UTC
MEAN_ELEMENT_THEORY = SGP/SGP4

EPOCH          = 2026-02-05T23:31:00.599520
MEAN_MOTION    = 15.03423586
ECCENTRICITY   = .00200319
INCLINATION    = 62.7852
RA_OF_ASC_NODE = 1.6695
ARG_OF_PERICENTER = 337.8166
MEAN_ANOMALY   = 22.2064

EPHEMERIS_TYPE = 0
CLASSIFICATION_TYPE = U
NORAD_CAT_ID   = 20666
ELEMENT_SET_NO = 999
REV_AT_EPOCH   = 93342
BSTAR          = .30727292E-3
MEAN_MOTION_DOT = .4021E-4
MEAN_MOTION_DDOT = 0

CCSDS_OMM_VERS = 2.0
CREATION_DATE  = 
ORIGINATOR     = 

OBJECT_NAME    = SL-8 R/B
OBJECT_ID      = 1990-078B
CENTER_NAME    = EARTH
REF_FRAME      = TEME
TIME_SYSTEM    = UTC
MEAN_ELEMENT_THEORY = SGP/SGP4

EPOCH          = 2026-02-05T15:28:37.646688
MEAN_MOTION    = 14.87999668
ECCENTRICITY   = .0367271
INCLINATION    = 82.9024
RA_OF_ASC_NODE = 280.1044
ARG_OF_PERICENTER = 121.3590
MEAN_ANOMALY   = 242.4120

EPHEMERIS_TYPE = 0
CLASSIFICATION_TYPE = U
NORAD_CAT_ID   = 20775
ELEMENT_SET_NO = 999
REV_AT_EPOCH   = 80453
BSTAR          = .63811E-3
MEAN_MOTION_DOT = .21588E-3
MEAN_MOTION_DDOT = 0

CCSDS_OMM_VERS = 2.0
CREATION_DATE  = 
ORIGINATOR     = 

OBJECT_NAME    = SL-8 R/B
OBJECT_ID      = 1991-006B
CENTER_NAME    = EARTH
REF_FRAME      = TEME
TIME_SYSTEM    = UTC
MEAN_ELEMENT_THEORY = SGP/SGP4

EPOCH          = 2026-02-05T23:10:19.531776
MEAN_MOTION    = 13.77491933
ECCENTRICITY   = .00235437
INCLINATION    = 82.9427
RA_OF_ASC_NODE = 193.6321
ARG_OF_PERICENTER = 122.6903
MEAN_ANOMALY   = 351.8215

EPHEMERIS_TYPE = 0
CLASSIFICATION_TYPE = U
NORAD_CAT_ID   = 21088
ELEMENT_SET_NO = 999
REV_AT_EPOCH   = 75970
BSTAR          = -.3955166E-5
MEAN_MOTION_DOT = .12E-6
MEAN_MOTION_DDOT = 0

CCSDS_OMM_VERS = 2.0
CREATION_DATE  = 
ORIGINATOR     = 

OBJECT_NAME    = OKEAN-3
OBJECT_ID      = 1991-039A
CENTER_NAME    = EARTH
REF_FRAME      = TEME
TIME_SYSTEM    = UTC
MEAN_ELEMENT_THEORY = SGP/SGP4

EPOCH          = 2026-02-05T22:59:26.689920
MEAN_MOTION    = 15.04552001
ECCENTRICITY   = .00164384
INCLINATION    = 82.5182
RA_OF_ASC_NODE = 7.5748
ARG_OF_PERICENTER = 80.6738
MEAN_ANOMALY   = 279.6346

EPHEMERIS_TYPE = 0
CLASSIFICATION_TYPE = U
NORAD_CAT_ID   = 21397
ELEMENT_SET_NO = 999
REV_AT_EPOCH   = 86026
BSTAR          = .34302659E-3
MEAN_MOTION_DOT = .4849E-4
MEAN_MOTION_DDOT = 0

CCSDS_OMM_VERS = 2.0
CREATION_DATE  = 
ORIGINATOR     = 

OBJECT_NAME    = COSMOS 2151
OBJECT_ID      = 1991-042A
CENTER_NAME    = EARTH
REF_FRAME      = TEME
TIME_SYSTEM    = UTC
MEAN_ELEMENT_THEORY = SGP/SGP4

EPOCH          = 2026-02-05T22:20:37.055616
MEAN_MOTION    = 14.99981062
ECCENTRICITY   = .00130932
INCLINATION    = 82.4966
RA_OF_ASC_NODE = 114.3107
ARG_OF_PERICENTER = 160.4169
MEAN_ANOMALY   = 199.7561

EPHEMERIS_TYPE = 0
CLASSIFICATION_TYPE = U
NORAD_CAT_ID   = 21422
ELEMENT_SET_NO = 999
REV_AT_EPOCH   = 85843
BSTAR          = .19917847E-3
MEAN_MOTION_DOT = .2505E-4
MEAN_MOTION_DDOT = 0

